{
  "type": "FeatureCollection",
  "features": [
    {
      "type": "Feature",
      "properties": {
        "norad_id": 44231,
        "name": "BEIDOU-2 G8 (C01)",
        "group": "gnss",
        "lat": 1.6332103093496624,
        "lon": 155.29469951683853,
        "alt_km": 35822.70919433357,
        "timestamp": "2025-12-08T19:31:49.055936+00:00",
        "meta_object_name": "BEIDOU-2 G8 (C01)",
        "meta_object_id": "2019-027A",
        "meta_epoch": "2025-12-08T07:26:35.147328",
        "meta_mean_motion": 1.00269007,
        "meta_eccentricity": 0.00086087,
        "meta_inclination": 1.6505,
        "meta_ra_of_asc_node": 74.7218,
        "meta_arg_of_pericenter": 255.48,
        "meta_mean_anomaly": 3.3084,
        "meta_ephemeris_type": 0,
        "meta_classification_type": "U",
        "meta_norad_cat_id": 44231,
        "meta_element_set_no": 999,
        "meta_rev_at_epoch": 2416,
        "meta_bstar": 0,
        "meta_mean_motion_dot": -2.45e-06,
        "meta_mean_motion_ddot": 0,
        "tle_line1": "1 44231U 19027A   25342.31012902 -.00000245  00000+0  00000+0 0  9997",
        "tle_line2": "2 44231   1.6505  74.7218 0008608 255.4800   3.3084  1.00269007 24164"
      },
      "geometry": {
        "type": "Point",
        "coordinates": [
          155.29469951683853,
          1.6332103093496624
        ]
      }
    },
    {
      "type": "Feature",
      "properties": {
        "norad_id": 44299,
        "name": "COSMOS 2534 (758)",
        "group": "gnss",
        "lat": -58.29883922460844,
        "lon": 70.05988470943846,
        "alt_km": 19117.018862764326,
        "timestamp": "2025-12-08T19:31:49.055946+00:00",
        "meta_object_name": "COSMOS 2534 (758)",
        "meta_object_id": "2019-030A",
        "meta_epoch": "2025-12-08T05:49:23.609568",
        "meta_mean_motion": 2.13102077,
        "meta_eccentricity": 0.00089492,
        "meta_inclination": 64.3654,
        "meta_ra_of_asc_node": 199.0446,
        "meta_arg_of_pericenter": 283.6677,
        "meta_mean_anomaly": 248.9744,
        "meta_ephemeris_type": 0,
        "meta_classification_type": "U",
        "meta_norad_cat_id": 44299,
        "meta_element_set_no": 999,
        "meta_rev_at_epoch": 5085,
        "meta_bstar": 0,
        "meta_mean_motion_dot": 4.9e-07,
        "meta_mean_motion_ddot": 0,
        "tle_line1": "1 44299U 19030A   25342.24263437  .00000049  00000+0  00000+0 0  9999",
        "tle_line2": "2 44299  64.3654 199.0446 0008949 283.6677 248.9744  2.13102077 50859"
      },
      "geometry": {
        "type": "Point",
        "coordinates": [
          70.05988470943846,
          -58.29883922460844
        ]
      }
    },
    {
      "type": "Feature",
      "properties": {
        "norad_id": 44337,
        "name": "BEIDOU-3 IGSO-2 (C39)",
        "group": "gnss",
        "lat": -24.135399649383686,
        "lon": 142.3596430275139,
        "alt_km": 35885.77359550124,
        "timestamp": "2025-12-08T19:31:49.055959+00:00",
        "meta_object_name": "BEIDOU-3 IGSO-2 (C39)",
        "meta_object_id": "2019-035A",
        "meta_epoch": "2025-12-08T04:07:53.847264",
        "meta_mean_motion": 1.00272471,
        "meta_eccentricity": 0.00374795,
        "meta_inclination": 55.2246,
        "meta_ra_of_asc_node": 160.5411,
        "meta_arg_of_pericenter": 202.4386,
        "meta_mean_anomaly": 255.7158,
        "meta_ephemeris_type": 0,
        "meta_classification_type": "U",
        "meta_norad_cat_id": 44337,
        "meta_element_set_no": 999,
        "meta_rev_at_epoch": 2375,
        "meta_bstar": 0,
        "meta_mean_motion_dot": -7.9e-07,
        "meta_mean_motion_ddot": 0,
        "tle_line1": "1 44337U 19035A   25342.17215101 -.00000079  00000+0  00000+0 0  9998",
        "tle_line2": "2 44337  55.2246 160.5411 0037479 202.4386 255.7158  1.00272471 23754"
      },
      "geometry": {
        "type": "Point",
        "coordinates": [
          142.3596430275139,
          -24.135399649383686
        ]
      }
    },
    {
      "type": "Feature",
      "properties": {
        "norad_id": 44506,
        "name": "GPS BIII-2  (PRN 18)",
        "group": "gnss",
        "lat": 55.39041634607547,
        "lon": 59.896378920893405,
        "alt_km": 20236.02323755433,
        "timestamp": "2025-12-08T19:31:49.055972+00:00",
        "meta_object_name": "GPS BIII-2  (PRN 18)",
        "meta_object_id": "2019-056A",
        "meta_epoch": "2025-12-07T10:30:03.799008",
        "meta_mean_motion": 2.00565766,
        "meta_eccentricity": 0.00577762,
        "meta_inclination": 55.723,
        "meta_ra_of_asc_node": 338.7627,
        "meta_arg_of_pericenter": 198.4737,
        "meta_mean_anomaly": 333.4267,
        "meta_ephemeris_type": 0,
        "meta_classification_type": "U",
        "meta_norad_cat_id": 44506,
        "meta_element_set_no": 999,
        "meta_rev_at_epoch": 4622,
        "meta_bstar": 0,
        "meta_mean_motion_dot": -8.3e-07,
        "meta_mean_motion_ddot": 0,
        "tle_line1": "1 44506U 19056A   25341.43754397 -.00000083  00000+0  00000+0 0  9997",
        "tle_line2": "2 44506  55.7230 338.7627 0057776 198.4737 333.4267  2.00565766 46229"
      },
      "geometry": {
        "type": "Point",
        "coordinates": [
          59.896378920893405,
          55.39041634607547
        ]
      }
    },
    {
      "type": "Feature",
      "properties": {
        "norad_id": 44542,
        "name": "BEIDOU-3 M24 (C46)",
        "group": "gnss",
        "lat": 39.954281729046585,
        "lon": -27.736355347774296,
        "alt_km": 21529.438324998966,
        "timestamp": "2025-12-08T19:31:49.055981+00:00",
        "meta_object_name": "BEIDOU-3 M24 (C46)",
        "meta_object_id": "2019-061A",
        "meta_epoch": "2025-12-07T13:11:18.062304",
        "meta_mean_motion": 1.86229273,
        "meta_eccentricity": 0.00095737,
        "meta_inclination": 54.4002,
        "meta_ra_of_asc_node": 189.1913,
        "meta_arg_of_pericenter": 24.494,
        "meta_mean_anomaly": 335.622,
        "meta_ephemeris_type": 0,
        "meta_classification_type": "U",
        "meta_norad_cat_id": 44542,
        "meta_element_set_no": 999,
        "meta_rev_at_epoch": 4222,
        "meta_bstar": 0,
        "meta_mean_motion_dot": 5.8e-07,
        "meta_mean_motion_ddot": 0,
        "tle_line1": "1 44542U 19061A   25341.54951461  .00000058  00000+0  00000+0 0  9997",
        "tle_line2": "2 44542  54.4002 189.1913 0009573  24.4940 335.6220  1.86229273 42226"
      },
      "geometry": {
        "type": "Point",
        "coordinates": [
          -27.736355347774296,
          39.954281729046585
        ]
      }
    },
    {
      "type": "Feature",
      "properties": {
        "norad_id": 44543,
        "name": "BEIDOU-3 M23 (C45)",
        "group": "gnss",
        "lat": 31.84801767594158,
        "lon": -144.4428215164864,
        "alt_km": 21508.285990190387,
        "timestamp": "2025-12-08T19:31:49.055992+00:00",
        "meta_object_name": "BEIDOU-3 M23 (C45)",
        "meta_object_id": "2019-061B",
        "meta_epoch": "2025-12-08T05:13:38.206848",
        "meta_mean_motion": 1.86227543,
        "meta_eccentricity": 0.00060833,
        "meta_inclination": 54.3988,
        "meta_ra_of_asc_node": 189.137,
        "meta_arg_of_pericenter": 22.991,
        "meta_mean_anomaly": 337.9683,
        "meta_ephemeris_type": 0,
        "meta_classification_type": "U",
        "meta_norad_cat_id": 44543,
        "meta_element_set_no": 999,
        "meta_rev_at_epoch": 4224,
        "meta_bstar": 0,
        "meta_mean_motion_dot": 5.2e-07,
        "meta_mean_motion_ddot": 0,
        "tle_line1": "1 44543U 19061B   25342.21780332  .00000052  00000+0  00000+0 0  9994",
        "tle_line2": "2 44543  54.3988 189.1370 0006083  22.9910 337.9683  1.86227543 42247"
      },
      "geometry": {
        "type": "Point",
        "coordinates": [
          -144.4428215164864,
          31.84801767594158
        ]
      }
    },
    {
      "type": "Feature",
      "properties": {
        "norad_id": 44624,
        "name": "EUTELSAT 5 WEST B (EGNOS/PRN 121)",
        "group": "gnss",
        "lat": 0.038097544601705,
        "lon": 5.803339271519126,
        "alt_km": 35790.876759194696,
        "timestamp": "2025-12-08T19:31:49.056002+00:00",
        "meta_object_name": "EUTELSAT 5 WEST B (EGNOS/PRN 121)",
        "meta_object_id": "2019-067A",
        "meta_epoch": "2025-12-08T06:43:52.065408",
        "meta_mean_motion": 1.00270849,
        "meta_eccentricity": 0.00035509,
        "meta_inclination": 0.0653,
        "meta_ra_of_asc_node": 339.355,
        "meta_arg_of_pericenter": 278.8019,
        "meta_mean_anomaly": 275.1006,
        "meta_ephemeris_type": 0,
        "meta_classification_type": "U",
        "meta_norad_cat_id": 44624,
        "meta_element_set_no": 999,
        "meta_rev_at_epoch": 2252,
        "meta_bstar": 0,
        "meta_mean_motion_dot": -4e-07,
        "meta_mean_motion_ddot": 0,
        "tle_line1": "1 44624U 19067A   25342.28046372 -.00000040  00000+0  00000+0 0  9994",
        "tle_line2": "2 44624   0.0653 339.3550 0003550 278.8019 275.1006  1.00270849 22525"
      },
      "geometry": {
        "type": "Point",
        "coordinates": [
          5.803339271519126,
          0.038097544601705
        ]
      }
    }
  ]
}